SENTINEL-6              
1 46984U 20086A   24122.22993622 -.00000037  00000+0  10250-3 0  9994
2 46984  66.0413 308.8009 0007750 270.8783  89.1344 12.80930561160815
